start=new Date('2021-11-07T00:00:00.000Z').valueOf();
sats=[{"CLASSIFICATION_TYPE":"U","ARG_OF_PERICENTER":"88.7572","SITE":"AFETR","EPOCH":"2021-11-06T18:54:59.349024","TIME_SYSTEM":"UTC","TLE_LINE1":"1 48476U 21040BA  21310.78818691 -.00004069  00000-0 -25453-3 0  9994","ECCENTRICITY":"0.00017970","APOAPSIS":"548.519","OBJECT_ID":"2021-040BA","MEAN_MOTION_DDOT":"0.0000000000000","MEAN_ANOMALY":"271.3622","DECAY_DATE":null,"LAUNCH_DATE":"2021-05-09","PERIOD":"95.593","REF_FRAME":"TEME","GP_ID":"189104408","RCS_SIZE":"LARGE","NORAD_CAT_ID":"48476","OBJECT_TYPE":"PAYLOAD","INCLINATION":"53.0404","MEAN_MOTION":"15.06380148","PERIAPSIS":"546.030","MEAN_ELEMENT_THEORY":"SGP4","COUNTRY_CODE":"US","REV_AT_EPOCH":"2903","FILE":"3205932","CENTER_NAME":"EARTH","TLE_LINE2":"2 48476  53.0404 102.0922 0001797  88.7572 271.3622 15.06380148 29037","MEAN_MOTION_DOT":"-0.00004069","EPHEMERIS_TYPE":"0","RA_OF_ASC_NODE":"102.0922","BSTAR":"-0.00025453000000","OBJECT_NAME":"STARLINK-2723","ELEMENT_SET_NO":"999","SEMIMAJOR_AXIS":"6925.409"},{"BSTAR":"-0.00014951000000","ELEMENT_SET_NO":"999","SEMIMAJOR_AXIS":"6925.395","OBJECT_NAME":"STARLINK-2728","FILE":"3205932","REV_AT_EPOCH":"2836","COUNTRY_CODE":"US","MEAN_ELEMENT_THEORY":"SGP4","PERIAPSIS":"546.093","EPHEMERIS_TYPE":"0","RA_OF_ASC_NODE":"102.0925","TLE_LINE2":"2 48478  53.0553 102.0925 0001685  85.8503 274.2678 15.06384751 28367","MEAN_MOTION_DOT":"-0.00002507","CENTER_NAME":"EARTH","INCLINATION":"53.0553","OBJECT_TYPE":"PAYLOAD","MEAN_MOTION":"15.06384751","RCS_SIZE":"LARGE","NORAD_CAT_ID":"48478","GP_ID":"189104403","DECAY_DATE":null,"REF_FRAME":"TEME","LAUNCH_DATE":"2021-05-09","PERIOD":"95.593","MEAN_ANOMALY":"274.2678","OBJECT_ID":"2021-040BC","MEAN_MOTION_DDOT":"0.0000000000000","EPOCH":"2021-11-06T18:33:45.544320","TIME_SYSTEM":"UTC","SITE":"AFETR","APOAPSIS":"548.427","ECCENTRICITY":"0.00016850","TLE_LINE1":"1 48478U 21040BC  21310.77344380 -.00002507  00000-0 -14951-3 0  9990","ARG_OF_PERICENTER":"85.8503","CLASSIFICATION_TYPE":"U"},{"MEAN_ANOMALY":"266.3978","DECAY_DATE":null,"LAUNCH_DATE":"2021-05-09","PERIOD":"95.593","REF_FRAME":"TEME","MEAN_MOTION_DDOT":"0.0000000000000","OBJECT_ID":"2021-040BD","APOAPSIS":"548.239","TLE_LINE1":"1 48479U 21040BD  21310.70341622 -.00003214  00000-0 -19706-3 0  9999","ECCENTRICITY":"0.00013950","EPOCH":"2021-11-06T16:52:55.161408","TIME_SYSTEM":"UTC","SITE":"AFETR","ARG_OF_PERICENTER":"93.7170","CLASSIFICATION_TYPE":"U","OBJECT_NAME":"STARLINK-2755","ELEMENT_SET_NO":"999","SEMIMAJOR_AXIS":"6925.408","BSTAR":"-0.00019706000000","RA_OF_ASC_NODE":"102.4067","EPHEMERIS_TYPE":"0","CENTER_NAME":"EARTH","TLE_LINE2":"2 48479  53.0551 102.4067 0001395  93.7170 266.3978 15.06380538 29021","MEAN_MOTION_DOT":"-0.00003214","REV_AT_EPOCH":"2902","COUNTRY_CODE":"US","FILE":"3205934","PERIAPSIS":"546.307","MEAN_ELEMENT_THEORY":"SGP4","MEAN_MOTION":"15.06380538","INCLINATION":"53.0551","OBJECT_TYPE":"PAYLOAD","NORAD_CAT_ID":"48479","RCS_SIZE":"LARGE","GP_ID":"189104937"},{"TIME_SYSTEM":"UTC","EPOCH":"2021-11-06T18:48:21.743136","SITE":"AFETR","APOAPSIS":"548.461","ECCENTRICITY":"0.00017660","TLE_LINE1":"1 48480U 21040BE  21310.78358499 -.00000399  00000-0 -78609-5 0  9999","CLASSIFICATION_TYPE":"U","ARG_OF_PERICENTER":"82.0747","LAUNCH_DATE":"2021-05-09","DECAY_DATE":null,"PERIOD":"95.593","REF_FRAME":"TEME","MEAN_ANOMALY":"278.0442","OBJECT_ID":"2021-040BE","MEAN_MOTION_DDOT":"0.0000000000000","INCLINATION":"53.0550","OBJECT_TYPE":"PAYLOAD","MEAN_MOTION":"15.06391891","RCS_SIZE":"LARGE","NORAD_CAT_ID":"48480","GP_ID":"189104935","BSTAR":"-0.00000786090000","SEMIMAJOR_AXIS":"6925.373","ELEMENT_SET_NO":"999","OBJECT_NAME":"STARLINK-2690","FILE":"3205934","REV_AT_EPOCH":"2889","COUNTRY_CODE":"US","MEAN_ELEMENT_THEORY":"SGP4","PERIAPSIS":"546.015","EPHEMERIS_TYPE":"0","RA_OF_ASC_NODE":"112.0360","MEAN_MOTION_DOT":"-0.00000399","TLE_LINE2":"2 48480  53.0550 112.0360 0001766  82.0747 278.0442 15.06391891 28892","CENTER_NAME":"EARTH"},{"ARG_OF_PERICENTER":"97.0821","CLASSIFICATION_TYPE":"U","ECCENTRICITY":"0.00019890","TLE_LINE1":"1 48481U 21040BF  21310.53198963 -.00001533  00000-0 -84042-4 0  9999","APOAPSIS":"548.621","SITE":"AFETR","TIME_SYSTEM":"UTC","EPOCH":"2021-11-06T12:46:03.904032","MEAN_MOTION_DDOT":"0.0000000000000","OBJECT_ID":"2021-040BF","DECAY_DATE":null,"LAUNCH_DATE":"2021-05-09","PERIOD":"95.593","REF_FRAME":"TEME","MEAN_ANOMALY":"263.0395","GP_ID":"189131977","NORAD_CAT_ID":"48481","RCS_SIZE":"LARGE","MEAN_MOTION":"15.06390176","OBJECT_TYPE":"PAYLOAD","INCLINATION":"53.0550","TLE_LINE2":"2 48481  53.0550 113.1627 0001989  97.0821 263.0395 15.06390176 27577","MEAN_MOTION_DOT":"-0.00001533","CENTER_NAME":"EARTH","EPHEMERIS_TYPE":"0","RA_OF_ASC_NODE":"113.1627","MEAN_ELEMENT_THEORY":"SGP4","PERIAPSIS":"545.866","FILE":"3206165","REV_AT_EPOCH":"2757","COUNTRY_CODE":"US","ELEMENT_SET_NO":"999","SEMIMAJOR_AXIS":"6925.379","OBJECT_NAME":"STARLINK-2706","BSTAR":"-0.00008404200000"},{"BSTAR":"-0.00001058300000","OBJECT_NAME":"STARLINK-2525","ELEMENT_SET_NO":"999","SEMIMAJOR_AXIS":"6925.383","COUNTRY_CODE":"US","REV_AT_EPOCH":"2805","FILE":"3205935","PERIAPSIS":"546.119","MEAN_ELEMENT_THEORY":"SGP4","EPHEMERIS_TYPE":"0","RA_OF_ASC_NODE":"112.3069","CENTER_NAME":"EARTH","MEAN_MOTION_DOT":"-0.00000439","TLE_LINE2":"2 48482  53.0552 112.3069 0001631  88.5048 271.6127 15.06388710 28054","INCLINATION":"53.0552","OBJECT_TYPE":"PAYLOAD","MEAN_MOTION":"15.06388710","NORAD_CAT_ID":"48482","RCS_SIZE":"LARGE","GP_ID":"189104950","MEAN_ANOMALY":"271.6127","DECAY_DATE":null,"LAUNCH_DATE":"2021-05-09","REF_FRAME":"TEME","PERIOD":"95.593","OBJECT_ID":"2021-040BG","MEAN_MOTION_DDOT":"0.0000000000000","EPOCH":"2021-11-06T17:23:25.602432","TIME_SYSTEM":"UTC","SITE":"AFETR","APOAPSIS":"548.378","TLE_LINE1":"1 48482U 21040BG  21310.72460188 -.00000439  00000-0 -10583-4 0  9995","ECCENTRICITY":"0.00016310","CLASSIFICATION_TYPE":"U","ARG_OF_PERICENTER":"88.5048"},{"MEAN_ANOMALY":"276.0715","DECAY_DATE":null,"REF_FRAME":"TEME","LAUNCH_DATE":"2021-05-09","PERIOD":"95.592","OBJECT_ID":"2021-040BH","MEAN_MOTION_DDOT":"0.0000000000000","SITE":"AFETR","EPOCH":"2021-11-06T10:55:57.716832","TIME_SYSTEM":"UTC","TLE_LINE1":"1 48483U 21040BH  21310.45552913  .00002209  00000-0  16712-3 0  9998","ECCENTRICITY":"0.00016190","APOAPSIS":"548.331","CLASSIFICATION_TYPE":"U","ARG_OF_PERICENTER":"84.0458","BSTAR":"0.00016712000000","OBJECT_NAME":"STARLINK-2531","ELEMENT_SET_NO":"999","SEMIMAJOR_AXIS":"6925.345","PERIAPSIS":"546.088","MEAN_ELEMENT_THEORY":"SGP4","COUNTRY_CODE":"US","REV_AT_EPOCH":"2756","FILE":"3206165","CENTER_NAME":"EARTH","MEAN_MOTION_DOT":"0.00002209","TLE_LINE2":"2 48483  53.0550 113.5119 0001619  84.0458 276.0715 15.06401265 27562","EPHEMERIS_TYPE":"0","RA_OF_ASC_NODE":"113.5119","OBJECT_TYPE":"PAYLOAD","INCLINATION":"53.0550","MEAN_MOTION":"15.06401265","GP_ID":"189132562","RCS_SIZE":"LARGE","NORAD_CAT_ID":"48483"},{"REF_FRAME":"TEME","DECAY_DATE":null,"LAUNCH_DATE":"2021-05-09","PERIOD":"95.592","MEAN_ANOMALY":"277.4603","OBJECT_ID":"2021-040BJ","MEAN_MOTION_DDOT":"0.0000000000000","SITE":"AFETR","EPOCH":"2021-11-06T10:22:44.852448","TIME_SYSTEM":"UTC","ECCENTRICITY":"0.00017510","TLE_LINE1":"1 48484U 21040BJ  21310.43246357 -.00000144  00000-0  92425-5 0  9993","APOAPSIS":"548.440","ARG_OF_PERICENTER":"82.6585","CLASSIFICATION_TYPE":"U","BSTAR":"0.00000924250000","ELEMENT_SET_NO":"999","SEMIMAJOR_AXIS":"6925.362","OBJECT_NAME":"STARLINK-2696","MEAN_ELEMENT_THEORY":"SGP4","PERIAPSIS":"546.014","FILE":"3206165","COUNTRY_CODE":"US","REV_AT_EPOCH":"2756","TLE_LINE2":"2 48484  53.0539 113.6104 0001751  82.6585 277.4603 15.06395640 27567","MEAN_MOTION_DOT":"-0.00000144","CENTER_NAME":"EARTH","RA_OF_ASC_NODE":"113.6104","EPHEMERIS_TYPE":"0","OBJECT_TYPE":"PAYLOAD","INCLINATION":"53.0539","MEAN_MOTION":"15.06395640","GP_ID":"189131745","NORAD_CAT_ID":"48484","RCS_SIZE":"LARGE"},{"PERIAPSIS":"546.142","MEAN_ELEMENT_THEORY":"SGP4","REV_AT_EPOCH":"2757","COUNTRY_CODE":"US","FILE":"3206165","CENTER_NAME":"EARTH","TLE_LINE2":"2 48485  53.0549 113.1840 0001567  84.9657 275.1511 15.06395536 27579","MEAN_MOTION_DOT":"0.00001216","EPHEMERIS_TYPE":"0","RA_OF_ASC_NODE":"113.1840","BSTAR":"0.00010054000000","OBJECT_NAME":"STARLINK-2500","ELEMENT_SET_NO":"999","SEMIMAJOR_AXIS":"6925.362","GP_ID":"189132329","RCS_SIZE":"LARGE","NORAD_CAT_ID":"48485","OBJECT_TYPE":"PAYLOAD","INCLINATION":"53.0549","MEAN_MOTION":"15.06395536","OBJECT_ID":"2021-040BK","MEAN_MOTION_DDOT":"0.0000000000000","MEAN_ANOMALY":"275.1511","DECAY_DATE":null,"REF_FRAME":"TEME","LAUNCH_DATE":"2021-05-09","PERIOD":"95.592","CLASSIFICATION_TYPE":"U","ARG_OF_PERICENTER":"84.9657","SITE":"AFETR","TIME_SYSTEM":"UTC","EPOCH":"2021-11-06T12:42:06.252192","TLE_LINE1":"1 48485U 21040BK  21310.52923903  .00001216  00000-0  10054-3 0  9999","ECCENTRICITY":"0.00015670","APOAPSIS":"548.312"},{"GP_ID":"189104979","NORAD_CAT_ID":"48486","RCS_SIZE":"LARGE","MEAN_MOTION":"15.06384481","OBJECT_TYPE":"PAYLOAD","INCLINATION":"53.0554","TLE_LINE2":"2 48486  53.0554 112.2683 0001697  87.7917 272.3266 15.06384481 28883","MEAN_MOTION_DOT":"-0.00002604","CENTER_NAME":"EARTH","EPHEMERIS_TYPE":"0","RA_OF_ASC_NODE":"112.2683","MEAN_ELEMENT_THEORY":"SGP4","PERIAPSIS":"546.086","FILE":"3205949","COUNTRY_CODE":"US","REV_AT_EPOCH":"2888","SEMIMAJOR_AXIS":"6925.396","ELEMENT_SET_NO":"999","OBJECT_NAME":"STARLINK-2496","BSTAR":"-0.00015602000000","CLASSIFICATION_TYPE":"U","ARG_OF_PERICENTER":"87.7917","ECCENTRICITY":"0.00016970","TLE_LINE1":"1 48486U 21040BL  21310.73197889 -.00002604  00000-0 -15602-3 0  9997","APOAPSIS":"548.436","SITE":"AFETR","TIME_SYSTEM":"UTC","EPOCH":"2021-11-06T17:34:02.976096","MEAN_MOTION_DDOT":"0.0000000000000","OBJECT_ID":"2021-040BL","REF_FRAME":"TEME","DECAY_DATE":null,"LAUNCH_DATE":"2021-05-09","PERIOD":"95.593","MEAN_ANOMALY":"272.3266"}];
